{
  "norad_id": 55061,
  "name": "SKYKRAFT-1C",
  "history": [
    {
      "epoch": "2026-03-28T21:02:48.824736Z",
      "apogee_km": 500.7490688149501,
      "perigee_km": 483.9570414809641,
      "latitude_deg": -3.530859740469218e-05,
      "longitude_deg": 1.3076669040927718,
      "height_km": 493.0383776808877,
      "semi_major_axis_km": 6870.490055147957,
      "eccentricity": 0.00122204,
      "inclination_deg": 97.3291,
      "raan_deg": 143.3022,
      "arg_perigee_deg": 73.4903,
      "mean_anomaly_deg": 286.7676,
      "mean_motion_rev_day": 15.24478097
    },
    {
      "epoch": "2026-03-29T03:20:53.422944Z",
      "apogee_km": 500.73002688144516,
      "perigee_km": 483.9619261289863,
      "latitude_deg": -4.523252229735136e-05,
      "longitude_deg": -93.21337526600857,
      "height_km": 492.91774980568493,
      "semi_major_axis_km": 6870.482976505215,
      "eccentricity": 0.0012203,
      "inclination_deg": 97.3291,
      "raan_deg": 143.5591,
      "arg_perigee_deg": 72.6535,
      "mean_anomaly_deg": 287.6036,
      "mean_motion_rev_day": 15.24480453
    },
    {
      "epoch": "2026-03-30T01:24:09.164160Z",
      "apogee_km": 500.6799201840431,
      "perigee_km": 483.94789885703176,
      "latitude_deg": -4.245876198239286e-05,
      "longitude_deg": -64.03580441318798,
      "height_km": 492.50277144913053,
      "semi_major_axis_km": 6870.450909520537,
      "eccentricity": 0.00121768,
      "inclination_deg": 97.3288,
      "raan_deg": 144.458,
      "arg_perigee_deg": 69.8405,
      "mean_anomaly_deg": 290.4141,
      "mean_motion_rev_day": 15.24491126
    },
    {
      "epoch": "2026-03-30T09:16:44.678208Z",
      "apogee_km": 500.6650779344127,
      "perigee_km": 483.9450327397035,
      "latitude_deg": -6.79170023616219e-06,
      "longitude_deg": 177.8138385423179,
      "height_km": 492.3629623759705,
      "semi_major_axis_km": 6870.442055337057,
      "eccentricity": 0.00121681,
      "inclination_deg": 97.3288,
      "raan_deg": 144.7791,
      "arg_perigee_deg": 68.8647,
      "mean_anomaly_deg": 291.389,
      "mean_motion_rev_day": 15.24494073
    },
    {
      "epoch": "2026-03-30T21:52:53.381280Z",
      "apogee_km": 500.6385082629704,
      "perigee_km": 483.9402118119542,
      "latitude_deg": 3.7573267995565755e-06,
      "longitude_deg": -11.226287896814936,
      "height_km": 492.13794442529803,
      "semi_major_axis_km": 6870.4263600374625,
      "eccentricity": 0.00121523,
      "inclination_deg": 97.3286,
      "raan_deg": 145.2928,
      "arg_perigee_deg": 67.2843,
      "mean_anomaly_deg": 292.9678,
      "mean_motion_rev_day": 15.24499297
    },
    {
      "epoch": "2026-03-31T13:38:04.043040Z",
      "apogee_km": 500.60034083416303,
      "perigee_km": 483.939603926141,
      "latitude_deg": 8.66777250059805e-06,
      "longitude_deg": 112.47443723023667,
      "height_km": 491.8657422357949,
      "semi_major_axis_km": 6870.406972380151,
      "eccentricity": 0.0012125,
      "inclination_deg": 97.3284,
      "raan_deg": 145.9349,
      "arg_perigee_deg": 65.3268,
      "mean_anomaly_deg": 294.9231,
      "mean_motion_rev_day": 15.2450575
    },
    {
      "epoch": "2026-04-01T10:06:47.551680Z",
      "apogee_km": 500.5515062428958,
      "perigee_km": 483.9581359166241,
      "latitude_deg": -1.6968411464987488e-06,
      "longitude_deg": 165.28682120545292,
      "height_km": 491.52487705276496,
      "semi_major_axis_km": 6870.391821079759,
      "eccentricity": 0.0012076,
      "inclination_deg": 97.3281,
      "raan_deg": 146.7696,
      "arg_perigee_deg": 62.7102,
      "mean_anomaly_deg": 297.5364,
      "mean_motion_rev_day": 15.24510793
    },
    {
      "epoch": "2026-04-02T20:46:09.410016Z",
      "apogee_km": 500.4176927038243,
      "perigee_km": 483.9742377848079,
      "latitude_deg": -5.688465886964144e-06,
      "longitude_deg": 5.434972340211909,
      "height_km": 490.91530181457625,
      "semi_major_axis_km": 6870.332965244316,
      "eccentricity": 0.0011967,
      "inclination_deg": 97.3274,
      "raan_deg": 148.1821,
      "arg_perigee_deg": 58.0045,
      "mean_anomaly_deg": 302.2354,
      "mean_motion_rev_day": 15.24530383
    },
    {
      "epoch": "2026-04-02T20:46:09.410880Z",
      "apogee_km": 500.41748659383484,
      "perigee_km": 483.97444389479733,
      "latitude_deg": -2.779894417291183e-06,
      "longitude_deg": 5.435068358408979,
      "height_km": 490.91541104651736,
      "semi_major_axis_km": 6870.332965244316,
      "eccentricity": 0.00119667,
      "inclination_deg": 97.3274,
      "raan_deg": 148.1822,
      "arg_perigee_deg": 58.0045,
      "mean_anomaly_deg": 302.2354,
      "mean_motion_rev_day": 15.24530383
    }
  ]
}